OBJECT_NAME,OBJECT_ID,EPOCH,MEAN_MOTION,ECCENTRICITY,INCLINATION,RA_OF_ASC_NODE,ARG_OF_PERICENTER,MEAN_ANOMALY,EPHEMERIS_TYPE,CLASSIFICATION_TYPE,NORAD_CAT_ID,ELEMENT_SET_NO,REV_AT_EPOCH,BSTAR,MEAN_MOTION_DOT,MEAN_MOTION_DDOT
BEIDOU-2 G8 (C01),2019-027A,2026-06-16T14:36:42.518880,1.00270903,.00102168,1.6562,74.4932,281.8426,272.2602,0,U,44231,999,2607,0,-.25E-5,0
COSMOS 2534 (758),2019-030A,2026-06-16T03:36:36.198144,2.13102184,.00133893,64.3685,192.6516,275.0852,148.6554,0,U,44299,999,5490,0,.77E-6,0
BEIDOU-3 IGSO-2 (C39),2019-035A,2026-06-14T14:58:00.763680,1.00267330,.0039904,55.2456,158.8849,216.4592,231.8306,0,U,44337,999,2564,0,-.71E-6,0
GPS BIII-2  (PRN 18),2019-056A,2026-06-16T14:23:27.625920,2.00569452,.00621079,55.6372,331.1656,197.6120,125.5470,0,U,44506,999,5005,0,-.85E-6,0
BEIDOU-3 M24 (C46),2019-061A,2026-06-16T04:02:42.402048,1.86229155,.00082945,54.3962,182.7624,358.7070,1.3305,0,U,44542,999,4577,0,.72E-6,0
BEIDOU-3 M23 (C45),2019-061B,2026-06-16T09:25:27.071616,1.86227317,.00056744,54.3948,182.7230,338.1160,83.7872,0,U,44543,999,4578,0,.69E-6,0
EUTELSAT 5 WEST B (EGNOS/PRN 121),2019-067A,2026-06-15T16:27:31.817088,1.00272136,.00028732,0.0632,3.7418,78.7733,63.3583,0,U,44624,999,2442,0,-.4E-6,0
BEIDOU-3 M22 (C44),2019-078A,2026-06-16T00:12:00.656352,1.86227223,.000638,53.9370,299.8696,50.4848,309.5596,0,U,44793,999,4462,0,-.68E-6,0
BEIDOU-3 M21 (C43),2019-078B,2026-06-16T03:33:30.281760,1.86227629,.00042219,53.9102,299.8261,48.5943,311.4305,0,U,44794,999,4463,0,-.69E-6,0
COSMOS 2544 (759),2019-088A,2026-06-16T02:10:49.778688,2.13102634,.00131482,65.5649,73.7677,258.6760,101.2075,0,U,44850,999,5069,0,-.21E-6,0
BEIDOU-3 M19 (C41),2019-090A,2026-06-14T12:33:33.779232,1.86231333,.00179222,56.5562,62.8792,297.9457,249.9520,0,U,44864,999,4418,0,-.53E-6,0
BEIDOU-3 M20 (C42),2019-090B,2026-06-15T10:45:46.195776,1.86231059,.00157003,56.5591,62.8831,311.8905,225.8558,0,U,44865,999,4418,0,-.51E-6,0
BEIDOU-3 G2 (C60),2020-017A,2026-06-16T15:06:26.053344,1.00271982,.00020228,2.8629,47.3270,32.4797,131.7766,0,U,45344,999,2325,0,-.144E-5,0
COSMOS 2545 (760),2020-018A,2026-06-16T06:51:36.735840,2.13102431,.0008397,64.3556,312.4510,230.0424,129.8687,0,U,45358,999,4864,0,-.55E-6,0
BEIDOU-3 G3 (C61),2020-040A,2026-06-16T16:15:28.414944,1.00266661,.00023944,2.4456,67.4401,335.5236,216.3546,0,U,45807,999,2206,0,-.357E-5,0
GPS BIII-3  (PRN 23),2020-041A,2026-06-11T13:28:43.319136,2.00558626,.0063604,56.6657,29.1622,204.6361,19.3768,0,U,45854,999,4392,0,-.63E-6,0
GALAXY 30 (WAAS/PRN 135),2020-056C,2026-06-16T12:25:12.722304,1.00271086,.00020929,0.0157,22.2185,63.4766,240.3870,0,U,46114,999,2128,0,.35E-6,0
COSMOS 2547 (705K),2020-075A,2026-06-12T17:18:40.313088,2.13100258,.00092459,64.5993,192.6246,239.6069,120.3788,0,U,46805,999,4381,0,.119E-5,0
GPS BIII-4  (PRN 14),2020-078A,2026-06-16T09:18:55.054944,2.00564793,.00734706,53.9798,210.8110,207.1720,238.0340,0,U,46826,999,4149,0,.55E-6,0
GPS BIII-5  (PRN 11),2021-054A,2026-06-14T11:47:19.265280,2.00568903,.0025337,55.1759,332.5679,228.5758,113.1489,0,U,48859,999,3669,0,-.79E-6,0
QZS-1R (QZSS/PRN 196),2021-096A,2026-06-15T15:17:38.668704,1.00255740,.07547637,37.4590,79.6067,271.7705,276.0514,0,U,49336,999,1699,0,-.28E-5,0
GSAT0223 (GALILEO 27),2021-116A,2026-06-16T09:11:31.624224,1.70475731,.00015407,57.1609,341.6961,187.8926,158.3860,0,U,49809,999,2816,0,-.86E-6,0
GSAT0224 (GALILEO 28),2021-116B,2026-06-15T15:04:19.674336,1.70475771,.0001119,57.1620,341.7155,160.0278,195.5159,0,U,49810,999,2817,0,-.83E-6,0
COSMOS 2557 (706K),2022-075A,2026-06-12T21:15:15.092640,2.13102288,.00102223,64.3011,314.6375,275.3123,84.5589,0,U,52984,999,3062,0,-.51E-6,0
COSMOS 2559 (707K),2022-130A,2026-06-16T11:01:23.578752,2.13101548,.00125785,64.2716,314.5942,178.0792,181.9110,0,U,54031,999,2867,0,-.56E-6,0
COSMOS 2564 (761),2022-161A,2026-06-16T07:15:43.862400,2.13101988,.00121838,64.7415,192.7412,224.7378,135.2251,0,U,54377,999,2761,0,.76E-6,0
GPS BIII-6  (PRN 28),2023-009A,2026-06-12T03:02:56.980032,2.00571745,.0006256,55.1221,148.7180,318.1997,154.6775,0,U,55268,999,2514,0,.93E-6,0
BEIDOU-3 G4 (C62),2023-066A,2026-06-16T15:23:24.425088,1.00273827,.00043227,0.4871,331.3399,181.3638,123.0801,0,U,56564,999,1138,0,-.283E-5,0
NVS-01 (IRNSS-1J),2023-076A,2026-06-16T13:37:45.065280,1.00264966,.00031822,2.1670,244.3756,36.2432,318.1169,0,U,56759,999,1110,0,-.337E-5,0
COSMOS 2569 (703K),2023-114A,2026-06-15T09:02:00.891744,2.13103652,.00107345,65.3011,72.6815,296.8932,63.0268,0,U,57517,999,2222,0,-.24E-6,0
BEIDOU-3 M28 (C50),2023-207A,2026-06-13T00:05:10.893120,1.86229633,.0003374,55.7492,62.4443,346.0621,13.9544,0,U,58654,999,1676,0,-.57E-6,0
